GLOBALSTAR M075 [+]     
1 37192U 10054E   23356.44701247 -.00000089  00000+0  81838-4 0  9999
2 37192  51.9966  34.0647 0000484 125.5093 341.3133 12.62268337607466
GLOBALSTAR M073 [+]     
1 37193U 10054F   23356.20889889 -.00000093  00000+0  57398-4 0  9992
2 37193  52.0079 308.1908 0000494  50.0188  56.2787 12.62270455609268
GLOBALSTAR M083 [+]     
1 37739U 11033A   23356.92908869 -.00000085  00000+0  10421-3 0  9991
2 37739  51.9858 255.4715 0001070  76.0155   4.9231 12.62264188578377
GLOBALSTAR M088 [+]     
1 37740U 11033B   23356.66505284 -.00000073  00000+0  17321-3 0  9991
2 37740  51.9710 162.2218 0001345 102.1589 338.6351 12.62269092573886
GLOBALSTAR M091 [+]     
1 37741U 11033C   23356.68343264 -.00000089  00000+0  85238-4 0  9992
2 37741  51.9992 124.7506 0001208 113.9584 349.5432 12.62269876574674
GLOBALSTAR M085 [+]     
1 37742U 11033D   23356.42759748 -.00000106  00000+0 -10634-4 0  9992
2 37742  51.9881  77.0494 0000876 123.2624 317.1777 12.62265916575155
GLOBALSTAR M081 [+]     
1 37743U 11033E   23356.53809007 -.00000102  00000+0  76450-5 0  9993
2 37743  51.9969  79.1645 0000942 138.7763 324.1778 12.62267643575319
GLOBALSTAR M089 [+]     
1 37744U 11033F   23356.41906953 -.00000081  00000+0  12647-3 0  9991
2 37744  51.9957  33.8588 0000250 162.5752 299.6754 12.62270332576146
